{"type": "FeatureCollection", "features": [ {"type": "Feature", "properties": {"norad_id": 66909, "name": "SILVERSAT", "group": "last-30-days", "lat": 42.04104552728539, "lon": -160.81609989759727, "alt_km": 410.5548587177027, "timestamp": "2025-12-10T11:33:52.173521+00:00", "meta": {"OBJECT_NAME": "SILVERSAT", "OBJECT_ID": "1998-067XV", "EPOCH": "2025-12-09T19:50:59.695584", "MEAN_MOTION": 15.51056405, "ECCENTRICITY": 0.0004877, "INCLINATION": 51.6304, "RA_OF_ASC_NODE": 156.8402, "ARG_OF_PERICENTER": 210.6195, "MEAN_ANOMALY": 149.451, "EPHEMERIS_TYPE": 0, "CLASSIFICATION_TYPE": "U", "NORAD_CAT_ID": 66909, "ELEMENT_SET_NO": 999, "REV_AT_EPOCH": 116, "BSTAR": 0.00154, "MEAN_MOTION_DOT": 0.00091886, "MEAN_MOTION_DDOT": 0}, "tle": {"line1": "1 66909U 98067XV  25343.82707981  .00091886  00000+0  15400-2 0  9992", "line2": "2 66909  51.6304 156.8402 0004877 210.6195 149.4510 15.51056405  1161"}}, "geometry": {"type": "Point", "coordinates": [-160.81609989759727, 42.04104552728539]}}, {"type": "Feature", "properties": {"norad_id": 66910, "name": "1998-067XW", "group": "last-30-days", "lat": 45.63928605485335, "lon": -152.3125395861255, "alt_km": 409.0673526201281, "timestamp": "2025-12-10T11:33:52.173531+00:00", "meta": {"OBJECT_NAME": "1998-067XW", "OBJECT_ID": "1998-067XW", "EPOCH": "2025-12-09T18:16:30.088704", "MEAN_MOTION": 15.51233501, "ECCENTRICITY": 0.0005725, "INCLINATION": 51.6303, "RA_OF_ASC_NODE": 157.1524, "ARG_OF_PERICENTER": 193.6821, "MEAN_ANOMALY": 166.4014, "EPHEMERIS_TYPE": 0, "CLASSIFICATION_TYPE": "U", "NORAD_CAT_ID": 66910, "ELEMENT_SET_NO": 999, "REV_AT_EPOCH": 115, "BSTAR": 0.0012863, "MEAN_MOTION_DOT": 0.00077029, "MEAN_MOTION_DDOT": 0}, "tle": {"line1": "1 66910U 98067XW  25343.76145936  .00077029  00000+0  12863-2 0  9996", "line2": "2 66910  51.6303 157.1524 0005725 193.6821 166.4014 15.51233501  1151"}}, "geometry": {"type": "Point", "coordinates": [-152.3125395861255, 45.63928605485335]}}, {"type": "Feature", "properties": {"norad_id": 66911, "name": "1998-067XX", "group": "last-30-days", "lat": 46.62237862478086, "lon": -149.44838525241383, "alt_km": 408.31227872985255, "timestamp": "2025-12-10T11:33:52.173540+00:00", "meta": {"OBJECT_NAME": "1998-067XX", "OBJECT_ID": "1998-067XX", "EPOCH": "2025-12-09T02:48:25.040736", "MEAN_MOTION": 15.51276485, "ECCENTRICITY": 0.00057034, "INCLINATION": 51.6296, "RA_OF_ASC_NODE": 160.3494, "ARG_OF_PERICENTER": 191.2268, "MEAN_ANOMALY": 168.8595, "EPHEMERIS_TYPE": 0, "CLASSIFICATION_TYPE": "U", "NORAD_CAT_ID": 66911, "ELEMENT_SET_NO": 999, "REV_AT_EPOCH": 104, "BSTAR": 0.0014245982, "MEAN_MOTION_DOT": 0.00085582, "MEAN_MOTION_DDOT": 0}, "tle": {"line1": "1 66911U 98067XX  25343.11695649  .00085582  00000+0  14246-2 0  9997", "line2": "2 66911  51.6296 160.3494 0005703 191.2268 168.8595 15.51276485  1046"}}, "geometry": {"type": "Point", "coordinates": [-149.44838525241383, 46.62237862478086]}}, {"type": "Feature", "properties": {"norad_id": 66912, "name": "1998-067XY", "group": "last-30-days", "lat": 38.716379380626044, "lon": -166.9717392346868, "alt_km": 412.368172636483, "timestamp": "2025-12-10T11:33:52.173552+00:00", "meta": {"OBJECT_NAME": "1998-067XY", "OBJECT_ID": "1998-067XY", "EPOCH": "2025-12-08T19:07:24.168000", "MEAN_MOTION": 15.50590071, "ECCENTRICITY": 0.00050436, "INCLINATION": 51.6301, "RA_OF_ASC_NODE": 161.961, "ARG_OF_PERICENTER": 202.8278, "MEAN_ANOMALY": 157.2488, "EPHEMERIS_TYPE": 0, "CLASSIFICATION_TYPE": "U", "NORAD_CAT_ID": 66912, "ELEMENT_SET_NO": 999, "REV_AT_EPOCH": 99, "BSTAR": 0.0009627216, "MEAN_MOTION_DOT": 0.00056065, "MEAN_MOTION_DDOT": 0}, "tle": {"line1": "1 66912U 98067XY  25342.79680750  .00056065  00000+0  96272-3 0  9992", "line2": "2 66912  51.6301 161.9610 0005043 202.8278 157.2488 15.50590071   993"}}, "geometry": {"type": "Point", "coordinates": [-166.9717392346868, 38.716379380626044]}}, {"type": "Feature", "properties": {"norad_id": 66913, "name": "2025-284A", "group": "last-30-days", "lat": -38.22346543678894, "lon": 124.97014591668291, "alt_km": 518.4230072958553, "timestamp": "2025-12-10T11:33:52.173562+00:00", "meta": {"OBJECT_NAME": "2025-284A", "OBJECT_ID": "2025-284A", "EPOCH": "2025-12-10T03:49:48.958752", "MEAN_MOTION": 15.18884282, "ECCENTRICITY": 0.0011955, "INCLINATION": 80.4047, "RA_OF_ASC_NODE": 133.0352, "ARG_OF_PERICENTER": 212.3226, "MEAN_ANOMALY": 147.727, "EPHEMERIS_TYPE": 0, "CLASSIFICATION_TYPE": "U", "NORAD_CAT_ID": 66913, "ELEMENT_SET_NO": 999, "REV_AT_EPOCH": 73, "BSTAR": 0.00041795, "MEAN_MOTION_DOT": 8.753e-05, "MEAN_MOTION_DDOT": 0}, "tle": {"line1": "1 66913U 25284A   25344.15959443  .00008753  00000+0  41795-3 0  9995", "line2": "2 66913  80.4047 133.0352 0011955 212.3226 147.7270 15.18884282   731"}}, "geometry": {"type": "Point", "coordinates": [124.97014591668291, -38.22346543678894]}}, {"type": "Feature", "properties": {"norad_id": 66914, "name": "2025-284B", "group": "last-30-days", "lat": -35.7951793029998, "lon": 125.62123352113514, "alt_km": 513.6676028382735, "timestamp": "2025-12-10T11:33:52.173572+00:00", "meta": {"OBJECT_NAME": "2025-284B", "OBJECT_ID": "2025-284B", "EPOCH": "2025-12-10T05:23:59.892000", "MEAN_MOTION": 15.18840838, "ECCENTRICITY": 0.0008157, "INCLINATION": 80.4057, "RA_OF_ASC_NODE": 132.9528, "ARG_OF_PERICENTER": 254.8779, "MEAN_ANOMALY": 105.1546, "EPHEMERIS_TYPE": 0, "CLASSIFICATION_TYPE": "U", "NORAD_CAT_ID": 66914, "ELEMENT_SET_NO": 999, "REV_AT_EPOCH": 74, "BSTAR": 0.00067227, "MEAN_MOTION_DOT": 0.00014044, "MEAN_MOTION_DDOT": 0}, "tle": {"line1": "1 66914U 25284B   25344.22499875  .00014044  00000+0  67227-3 0  9990", "line2": "2 66914  80.4057 132.9528 0008157 254.8779 105.1546 15.18840838   744"}}, "geometry": {"type": "Point", "coordinates": [125.62123352113514, -35.7951793029998]}}, {"type": "Feature", "properties": {"norad_id": 66915, "name": "HULIANWANG DIGUI 14A", "group": "last-30-days", "lat": -48.923174457535595, "lon": 52.08679428842515, "alt_km": 873.5143918866033, "timestamp": "2025-12-10T11:33:52.173582+00:00", "meta": {"OBJECT_NAME": "HULIANWANG DIGUI 14A", "OBJECT_ID": "2025-285A", "EPOCH": "2025-12-10T05:07:00.829056", "MEAN_MOTION": 14.0546633, "ECCENTRICITY": 0.0008105, "INCLINATION": 50.0034, "RA_OF_ASC_NODE": 127.5821, "ARG_OF_PERICENTER": 274.1801, "MEAN_ANOMALY": 85.8178, "EPHEMERIS_TYPE": 0, "CLASSIFICATION_TYPE": "U", "NORAD_CAT_ID": 66915, "ELEMENT_SET_NO": 999, "REV_AT_EPOCH": 55, "BSTAR": 1.2826e-05, "MEAN_MOTION_DOT": -1.31e-06, "MEAN_MOTION_DDOT": 0}, "tle": {"line1": "1 66915U 25285A   25344.21320404 -.00000131  00000+0  12826-4 0  9991", "line2": "2 66915  50.0034 127.5821 0008105 274.1801  85.8178 14.05466330   553"}}, "geometry": {"type": "Point", "coordinates": [52.08679428842515, -48.923174457535595]}}, {"type": "Feature", "properties": {"norad_id": 66916, "name": "HULIANWANG DIGUI 14B", "group": "last-30-days", "lat": -48.76685492903247, "lon": 53.18363508703448, "alt_km": 874.2518507020832, "timestamp": "2025-12-10T11:33:52.173592+00:00", "meta": {"OBJECT_NAME": "HULIANWANG DIGUI 14B", "OBJECT_ID": "2025-285B", "EPOCH": "2025-12-10T05:06:49.310208", "MEAN_MOTION": 14.05512718, "ECCENTRICITY": 0.000696, "INCLINATION": 50.0045, "RA_OF_ASC_NODE": 127.5825, "ARG_OF_PERICENTER": 268.8886, "MEAN_ANOMALY": 91.1222, "EPHEMERIS_TYPE": 0, "CLASSIFICATION_TYPE": "U", "NORAD_CAT_ID": 66916, "ELEMENT_SET_NO": 999, "REV_AT_EPOCH": 55, "BSTAR": 1.2834e-05, "MEAN_MOTION_DOT": -1.31e-06, "MEAN_MOTION_DDOT": 0}, "tle": {"line1": "1 66916U 25285B   25344.21307072 -.00000131  00000+0  12834-4 0  9997", "line2": "2 66916  50.0045 127.5825 0006960 268.8886  91.1222 14.05512718   552"}}, "geometry": {"type": "Point", "coordinates": [53.18363508703448, -48.76685492903247]}}, {"type": "Feature", "properties": {"norad_id": 66917, "name": "HULIANWANG DIGUI 14C", "group": "last-30-days", "lat": -48.523668393479156, "lon": 54.71371189524497, "alt_km": 873.5143718357685, "timestamp": "2025-12-10T11:33:52.173601+00:00", "meta": {"OBJECT_NAME": "HULIANWANG DIGUI 14C", "OBJECT_ID": "2025-285C", "EPOCH": "2025-12-10T05:06:32.323968", "MEAN_MOTION": 14.055788, "ECCENTRICITY": 0.0007544, "INCLINATION": 50.001, "RA_OF_ASC_NODE": 127.578, "ARG_OF_PERICENTER": 276.5822, "MEAN_ANOMALY": 83.4225, "EPHEMERIS_TYPE": 0, "CLASSIFICATION_TYPE": "U", "NORAD_CAT_ID": 66917, "ELEMENT_SET_NO": 999, "REV_AT_EPOCH": 55, "BSTAR": -3.0651e-06, "MEAN_MOTION_DOT": -1.57e-06, "MEAN_MOTION_DDOT": 0}, "tle": {"line1": "1 66917U 25285C   25344.21287412 -.00000157  00000+0 -30651-5 0  9990", "line2": "2 66917  50.0010 127.5780 0007544 276.5822  83.4225 14.05578800   551"}}, "geometry": {"type": "Point", "coordinates": [54.71371189524497, -48.523668393479156]}}, {"type": "Feature", "properties": {"norad_id": 66918, "name": "HULIANWANG DIGUI 14D", "group": "last-30-days", "lat": -48.06291375597415, "lon": 57.34262410079304, "alt_km": 873.9317248395546, "timestamp": "2025-12-10T11:33:52.173611+00:00", "meta": {"OBJECT_NAME": "HULIANWANG DIGUI 14D", "OBJECT_ID": "2025-285D", "EPOCH": "2025-12-10T05:06:03.788640", "MEAN_MOTION": 14.05703345, "ECCENTRICITY": 0.0006456, "INCLINATION": 50.0042, "RA_OF_ASC_NODE": 127.5783, "ARG_OF_PERICENTER": 271.7014, "MEAN_ANOMALY": 88.3151, "EPHEMERIS_TYPE": 0, "CLASSIFICATION_TYPE": "U", "NORAD_CAT_ID": 66918, "ELEMENT_SET_NO": 999, "REV_AT_EPOCH": 55, "BSTAR": 4.2398e-06, "MEAN_MOTION_DOT": -1.45e-06, "MEAN_MOTION_DDOT": 0}, "tle": {"line1": "1 66918U 25285D   25344.21254385 -.00000145  00000+0  42398-5 0  9991", "line2": "2 66918  50.0042 127.5783 0006456 271.7014  88.3151 14.05703345   557"}}, "geometry": {"type": "Point", "coordinates": [57.34262410079304, -48.06291375597415]}}]}